OBJECT_NAME,OBJECT_ID,EPOCH,MEAN_MOTION,ECCENTRICITY,INCLINATION,RA_OF_ASC_NODE,ARG_OF_PERICENTER,MEAN_ANOMALY,EPHEMERIS_TYPE,CLASSIFICATION_TYPE,NORAD_CAT_ID,ELEMENT_SET_NO,REV_AT_EPOCH,BSTAR,MEAN_MOTION_DOT,MEAN_MOTION_DDOT
SAR-LUPE 2,2007-030A,2026-07-01T22:12:46.738944,15.52229177,.00028191,98.1066,289.2106,202.2985,157.8143,0,U,31797,999,5922,.32995681E-3,.19926E-3,0
SAPPHIRE,2013-009C,2026-07-01T22:35:38.017536,14.35244561,.00107528,98.4266,2.0471,199.2348,160.8434,0,U,39088,999,69869,.47476216E-4,.93E-6,0
PRAETORIAN SDA_602,2025-203A,2026-07-01T21:57:55.459008,13.83886854,.0006605,81.3031,357.1288,148.9436,211.2113,0,U,65565,999,4073,.69420548E-4,.89E-6,0
PRAETORIAN SDA_603,2025-203B,2026-07-01T22:39:38.794464,13.83906918,.00101246,81.3040,357.0249,148.2465,211.9304,0,U,65566,999,4074,.14225948E-3,.17E-5,0
PRAETORIAN SDA_604,2025-203C,2026-07-01T21:37:01.507296,13.83049065,.00060669,81.3054,357.4993,152.6055,207.5422,0,U,65567,999,4071,.43676827E-4,.6E-6,0
PRAETORIAN SDA_605,2025-203D,2026-07-01T22:25:20.402688,13.83435069,.00088611,81.3020,357.1170,144.3564,215.8186,0,U,65568,999,4073,.7849565E-5,.21E-6,0
PRAETORIAN SDA_606,2025-203E,2026-07-01T22:03:51.909120,13.83199162,.00067293,81.3057,357.3637,147.3900,212.7673,0,U,65569,999,4072,.40029471E-4,.56E-6,0
PRAETORIAN SDA_607,2025-203F,2026-07-01T21:58:45.364512,13.84285997,.0009409,81.3038,357.0022,148.2639,211.9086,0,U,65570,999,4074,.11762678E-3,.143E-5,0
PRAETORIAN SDA_608,2025-203G,2026-07-01T21:33:22.011552,13.83818390,.00065698,81.3009,357.1866,151.7235,208.4279,0,U,65571,999,4072,.63651762E-4,.82E-6,0
PRAETORIAN SDA_609,2025-203H,2026-07-01T21:34:26.094432,13.84211046,.00074874,81.3050,357.1661,146.7054,213.4575,0,U,65572,999,4073,.13993612E-3,.168E-5,0
PRAETORIAN SDA_610,2025-203J,2026-07-01T22:49:03.405504,13.83769101,.00073505,81.3010,357.0972,151.2526,208.9037,0,U,65573,999,4073,.50488811E-4,.68E-6,0
PRAETORIAN SDA_611,2025-203K,2026-07-01T22:57:15.171840,13.83310743,.00061347,81.3013,357.2676,154.9073,205.2382,0,U,65574,999,4072,-.17426432E-3,-.179E-5,0
PRAETORIAN SDA_612,2025-203L,2026-07-01T22:15:45.300960,13.85040725,.00099018,81.3020,356.8447,147.6412,212.5354,0,U,65575,999,4075,.21861035E-3,.259E-5,0
PRAETORIAN SDA_613,2025-203M,2026-07-01T21:31:07.825440,13.82766519,.00063299,81.3001,357.3317,145.8741,214.2823,0,U,65576,999,4071,.45508143E-4,.61E-6,0
PRAETORIAN SDA_614,2025-203N,2026-07-01T22:04:10.741728,13.84778330,.00077957,81.3016,356.9336,145.0421,215.1249,0,U,65577,999,4075,.23405143E-4,.38E-6,0
PRAETORIAN SDA_615,2025-203P,2026-07-01T21:36:07.337088,13.84437862,.00096576,81.3027,356.9248,146.4253,213.7518,0,U,65578,999,4074,.1590182E-3,.19E-5,0
PRAETORIAN SDA_616,2025-203Q,2026-07-01T22:56:45.375072,13.83269190,.00060516,81.3065,357.4234,153.0652,207.0819,0,U,65579,999,4072,.1444539E-3,.17E-5,0
PRAETORIAN SDA_617,2025-203R,2026-07-01T21:45:30.819744,13.83151213,.00080469,81.3039,357.2989,145.5500,214.6179,0,U,65580,999,4072,.46341744E-4,.63E-6,0
PRAETORIAN SDA_618,2025-203S,2026-07-01T22:30:14.620608,13.84224728,.00104103,81.3022,356.8176,150.0236,210.1519,0,U,65581,999,4075,.15171614E-3,.181E-5,0
PRAETORIAN SDA_619,2025-203T,2026-07-01T21:48:36.889056,13.83807163,.00088533,81.3049,357.1611,146.8519,213.3194,0,U,65582,999,4136,.12625379E-3,.152E-5,0
PRAETORIAN SDA_620,2025-203U,2026-07-01T22:31:47.248320,13.83619797,.00083217,81.3028,357.1565,142.7340,217.4395,0,U,65583,999,4073,.16908957E-3,.199E-5,0
PRAETORIAN SDA_621,2025-203V,2026-07-01T21:51:13.909824,13.83802683,.00081122,81.3022,357.0948,140.6234,219.5514,0,U,65584,999,4073,.41150468E-4,.58E-6,0
PRAETORIAN SDA_601,2025-203W,2026-07-01T21:18:38.655360,13.83169195,.00060869,81.3037,357.4285,156.0248,204.1192,0,U,65585,999,4071,.20862031E-3,.24E-5,0
VICTUS HAZE PUMA,2026-142A,2026-07-01T22:54:31.163040,15.20801341,.00214606,97.4465,80.4115,310.8013,49.1360,0,U,69646,999,191,.16659527E-3,.3623E-4,0
