SAR-LUPE 2              
1 31797U 07030A   26182.92554096  .00019926  00000+0  32996-3 0  9994
2 31797  98.1066 289.2106 0002819 202.2985 157.8143 15.52229177 59223
SAPPHIRE                
1 39088U 13009C   26182.94141224  .00000093  00000+0  47476-4 0  9990
2 39088  98.4266   2.0471 0010752 199.2348 160.8434 14.35244561698699
PRAETORIAN SDA_602      
1 65565U 25203A   26182.91522522  .00000089  00000+0  69421-4 0  9998
2 65565  81.3031 357.1288 0006605 148.9436 211.2113 13.83886854 40730
PRAETORIAN SDA_603      
1 65566U 25203B   26182.94419901  .00000170  00000+0  14226-3 0  9991
2 65566  81.3040 357.0249 0010124 148.2465 211.9304 13.83906918 40747
PRAETORIAN SDA_604      
1 65567U 25203C   26182.90071189  .00000060  00000+0  43677-4 0  9991
2 65567  81.3054 357.4993 0006066 152.6055 207.5422 13.83049065 40717
PRAETORIAN SDA_605      
1 65568U 25203D   26182.93426392  .00000021  00000+0  78496-5 0  9990
2 65568  81.3020 357.1170 0008861 144.3564 215.8186 13.83435069 40737
PRAETORIAN SDA_606      
1 65569U 25203E   26182.91935080  .00000056  00000+0  40029-4 0  9996
2 65569  81.3057 357.3637 0006729 147.3900 212.7673 13.83199162 40723
PRAETORIAN SDA_607      
1 65570U 25203F   26182.91580283  .00000143  00000+0  11763-3 0  9998
2 65570  81.3038 357.0022 0009409 148.2639 211.9086 13.84285997 40740
PRAETORIAN SDA_608      
1 65571U 25203G   26182.89817143  .00000082  00000+0  63652-4 0  9991
2 65571  81.3009 357.1866 0006569 151.7235 208.4279 13.83818390 40722
PRAETORIAN SDA_609      
1 65572U 25203H   26182.89891313  .00000168  00000+0  13994-3 0  9991
2 65572  81.3050 357.1661 0007487 146.7054 213.4575 13.84211046 40737
PRAETORIAN SDA_610      
1 65573U 25203J   26182.95073386  .00000068  00000+0  50489-4 0  9991
2 65573  81.3010 357.0972 0007350 151.2526 208.9037 13.83769101 40733
PRAETORIAN SDA_611      
1 65574U 25203K   26182.95642560 -.00000179  00000+0 -17426-3 0  9996
2 65574  81.3013 357.2676 0006134 154.9073 205.2382 13.83310743 40722
PRAETORIAN SDA_612      
1 65575U 25203L   26182.92760765  .00000259  00000+0  21861-3 0  9997
2 65575  81.3020 356.8447 0009901 147.6412 212.5354 13.85040725 40758
PRAETORIAN SDA_613      
1 65576U 25203M   26182.89661835  .00000061  00000+0  45508-4 0  9998
2 65576  81.3001 357.3317 0006329 145.8741 214.2823 13.82766519 40715
PRAETORIAN SDA_614      
1 65577U 25203N   26182.91956877  .00000038  00000+0  23405-4 0  9991
2 65577  81.3016 356.9336 0007795 145.0421 215.1249 13.84778330 40755
PRAETORIAN SDA_615      
1 65578U 25203P   26182.90008492  .00000190  00000+0  15902-3 0  9993
2 65578  81.3027 356.9248 0009657 146.4253 213.7518 13.84437862 40741
PRAETORIAN SDA_616      
1 65579U 25203Q   26182.95608073  .00000170  00000+0  14445-3 0  9999
2 65579  81.3065 357.4234 0006051 153.0652 207.0819 13.83269190 40721
PRAETORIAN SDA_617      
1 65580U 25203R   26182.90660671  .00000063  00000+0  46342-4 0  9991
2 65580  81.3039 357.2989 0008046 145.5500 214.6179 13.83151213 40722
PRAETORIAN SDA_618      
1 65581U 25203S   26182.93766922  .00000181  00000+0  15172-3 0  9998
2 65581  81.3022 356.8176 0010410 150.0236 210.1519 13.84224728 40758
PRAETORIAN SDA_619      
1 65582U 25203T   26182.90876029  .00000152  00000+0  12625-3 0  9994
2 65582  81.3049 357.1611 0008853 146.8519 213.3194 13.83807163 41362
PRAETORIAN SDA_620      
1 65583U 25203U   26182.93874130  .00000199  00000+0  16909-3 0  9999
2 65583  81.3028 357.1565 0008321 142.7340 217.4395 13.83619797 40737
PRAETORIAN SDA_621      
1 65584U 25203V   26182.91057766  .00000058  00000+0  41150-4 0  9997
2 65584  81.3022 357.0948 0008112 140.6234 219.5514 13.83802683 40737
PRAETORIAN SDA_601      
1 65585U 25203W   26182.88794740  .00000240  00000+0  20862-3 0  9993
2 65585  81.3037 357.4285 0006086 156.0248 204.1192 13.83169195 40710
VICTUS HAZE PUMA        
1 69646U 26142A   26182.95452735  .00003623  00000+0  16660-3 0  9990
2 69646  97.4465  80.4115 0021460 310.8013  49.1360 15.20801341  1915
